OBJECT_NAME,OBJECT_ID,EPOCH,MEAN_MOTION,ECCENTRICITY,INCLINATION,RA_OF_ASC_NODE,ARG_OF_PERICENTER,MEAN_ANOMALY,EPHEMERIS_TYPE,CLASSIFICATION_TYPE,NORAD_CAT_ID,ELEMENT_SET_NO,REV_AT_EPOCH,BSTAR,MEAN_MOTION_DOT,MEAN_MOTION_DDOT
SL-16 R/B,1995-058B,2026-06-03T23:43:19.017984,14.15506180,.00131891,71.0220,359.0713,338.2018,21.8542,0,U,23705,999,58006,-.10228215E-3,-.248E-5,0
SL-16 R/B,1996-051B,2026-06-03T15:30:51.660864,14.12441490,.0014292,70.7634,353.3077,357.7855,2.3198,0,U,24298,999,53378,.10371E-3,.142E-5,0
ORBVIEW 2 (SEASTAR),1997-037A,2026-06-04T01:20:28.870080,14.35546462,.00027424,98.8678,321.7120,143.6285,216.5086,0,U,24883,999,52086,.12358423E-3,.309E-5,0
SL-16 R/B,1998-043G,2026-06-03T11:17:52.371456,14.26066141,.00107658,98.8359,108.5125,122.3726,237.8497,0,U,25400,999,45121,.43380779E-4,.58E-6,0
SL-16 R/B,1998-045B,2026-06-04T00:39:48.544416,14.16203190,.00095412,71.0121,0.0058,256.9408,103.0651,0,U,25407,999,43932,.14736869E-3,.244E-5,0
ISS (ZARYA),1998-067A,2026-06-04T17:47:31.539264,15.49603626,.0007031,51.6329,1.7083,132.5880,227.5702,0,U,25544,999,56982,.15298E-3,.8168E-4,0
CZ-4B R/B,1999-025C,2026-06-04T02:02:59.538912,14.18281192,.00382601,98.6489,197.2530,96.2684,317.9376,0,U,25732,999,40041,.5920706E-4,.8E-6,0
OKEAN-O,1999-039A,2026-06-04T02:24:30.619296,14.80450948,.00018957,97.9320,214.0478,82.7147,277.4280,0,U,25860,999,44717,.10818638E-3,.775E-5,0
SL-16 R/B,1999-039B,2026-06-04T16:11:19.111200,14.81832648,.0014219,97.9843,214.5726,340.4042,19.6623,0,U,25861,999,44974,.856E-4,.623E-5,0
DELTA 2 R/B,1999-041E,2026-06-03T15:45:19.654272,14.11990288,.05011081,51.7658,317.8456,242.0234,112.9132,0,U,25876,999,37517,.14944806E-3,.694E-5,0
HELIOS 1B,1999-064A,2026-06-03T15:53:37.240512,14.87968134,.00022527,98.1625,59.4101,109.7874,250.3585,0,U,25977,999,69804,.18276508E-3,.1617E-4,0
TERRA,1999-068A,2026-06-04T06:50:27.145824,14.61092716,.00008103,97.9462,205.3422,263.3577,185.5303,0,U,25994,999,40772,.10891886E-3,.491E-5,0
SL-16 R/B,2000-006B,2026-06-03T15:23:50.523072,14.15837347,.0014836,71.0033,277.1057,45.0794,315.1530,0,U,26070,999,36072,.1731E-4,-.14E-6,0
TITAN 4B R/B,2000-047B,2026-06-04T05:04:15.633984,15.10118859,.00453822,67.9869,157.0953,300.1974,59.4685,0,U,26474,999,40597,.22273163E-3,.3589E-4,0
ENVISAT,2002-009A,2026-06-03T11:48:33.825024,14.39061394,.00013312,98.3829,106.1165,92.0435,19.9609,0,U,27386,999,27151,.49997679E-4,.112E-5,0
IDEFIX & ARIANE 42P R/B,2002-021B,2026-06-04T16:25:23.219328,14.31076155,.0010706,98.5941,93.3029,294.7269,65.2799,0,U,27422,999,25646,.12051E-3,.274E-5,0
AQUA,2002-022A,2026-06-04T17:50:27.629376,14.62138630,.0001589,98.4271,124.7782,56.6102,42.0718,0,U,27424,999,28145,.20134E-3,.963E-5,0
CZ-4B R/B,2002-024C,2026-06-04T01:59:47.687712,14.14562256,.0050923,98.8704,207.9875,136.7538,279.9487,0,U,27432,999,24145,.52512975E-4,.58E-6,0
MIDORI II (ADEOS-II),2002-056A,2026-06-03T11:42:19.052928,14.29341638,.0002177,98.7872,113.6317,96.1451,263.9978,0,U,27597,999,22255,.14226E-3,.317E-5,0
H-2A R/B,2002-056E,2026-06-03T11:35:20.537376,14.33815770,.00688353,98.3306,111.6572,266.0531,202.3504,0,U,27601,999,22640,.10004215E-3,.243E-5,0
CZ-4B R/B,2003-049C,2026-06-03T14:47:02.400864,14.55090366,.00475034,98.6894,152.9224,330.8112,29.0430,0,U,28059,999,19909,.96037238E-4,.368E-5,0
CZ-2C R/B,2004-012C,2026-06-04T15:59:11.256000,15.76575932,.0008641,97.7082,229.8963,341.2220,18.8725,0,U,28222,999,21792,.58208E-3,.93306E-3,0
SL-16 R/B,2004-021B,2026-06-04T01:54:35.915040,14.14613252,.0007451,71.0025,51.1974,269.4456,90.5812,0,U,28353,999,13505,-.21683989E-4,-.89E-6,0
CZ-4B R/B,2004-035C,2026-06-04T01:21:51.482304,15.30421930,.00315136,97.3368,188.2801,25.1070,335.1695,0,U,28415,999,19311,.31778686E-3,.9416E-4,0
CZ-2C R/B,2004-046B,2026-06-03T15:48:55.399392,14.27023466,.0138083,98.1954,64.2840,260.5740,97.9811,0,U,28480,999,12076,.61753078E-4,.124E-5,0
ARIANE 5 R/B,2004-049H,2026-06-04T01:29:43.355040,14.85429493,.0085158,98.2713,326.8091,71.4879,289.5565,0,U,28499,999,15861,.11756938E-3,.1017E-4,0
CZ-2D R/B,2005-024B,2026-06-04T00:23:08.744352,15.68086346,.00054575,97.3490,173.8010,82.9591,277.2290,0,U,28738,999,15327,.50505645E-3,.56235E-3,0
ALOS (DAICHI),2006-002A,2026-06-03T11:27:14.744736,14.70020825,.0001949,98.1317,110.0882,66.5331,293.6079,0,U,28931,999,8608,.22358505E-3,.1292E-4,0
H-2A R/B,2006-002B,2026-06-04T00:03:58.149504,15.17891973,.00496693,98.2552,309.6413,308.2411,51.4355,0,U,28932,999,10752,.30250412E-3,.6247E-4,0
RESURS-DK 1,2006-021A,2026-06-04T00:18:23.517216,15.13154696,.00060306,69.9332,13.6552,303.6136,56.4455,0,U,29228,999,10058,.13938843E-3,.237E-4,0
